[Satellite]
VERSION=1.1
NAME=BEIDOU 1C
NICKNAME=BEIDOU 1C
TLE1=1 27813U 03021A   11059.59019686 -.00000373  00000-0  10000-3 0  2314
TLE2=2 27813   0.4532  95.0715 0011275 340.9456  44.9970  1.00275264 28483
